{"fetched_at":"2026-03-30T20:46:33Z","count":15425,"tles":[{"name":"STARLINK-3133","line1":"1 49416U 21104J   26087.85162792  .00000368  00000+0  41215-4 0  9998","line2":"2 49416  53.2161 143.0991 0001301  91.5885 268.5256 15.08837443241523","category":"Starlink"}]}