{
  "norad_id": 49416,
  "name": "STARLINK-3133",
  "history": [
    {
      "epoch": "2026-03-28T20:26:20.652288",
      "apogee_km": 540.6516370299232,
      "perigee_km": 538.8507723724751,
      "latitude_deg": -53.19182635927415,
      "longitude_deg": -76.64371967990883,
      "semi_major_axis_km": 6917.888204701198,
      "eccentricity": 0.00013016,
      "inclination_deg": 53.2161,
      "raan_deg": 143.0991,
      "arg_perigee_deg": 91.5885,
      "mean_anomaly_deg": 268.5256,
      "mean_motion_rev_day": 15.08837443
    }
  ]
}